[{"OBJECT_NAME":"STARLINK-32175","OBJECT_ID":"2024-136L","EPOCH":"2026-03-09T10:12:22.126176","MEAN_MOTION":15.30196907,"ECCENTRICITY":0.0001314,"INCLINATION":53.1602,"RA_OF_ASC_NODE":76.9225,"ARG_OF_PERICENTER":84.2758,"MEAN_ANOMALY":275.8392,"EPHEMERIS_TYPE":0,"CLASSIFICATION_TYPE":"U","NORAD_CAT_ID":60339,"ELEMENT_SET_NO":999,"REV_AT_EPOCH":8962,"BSTAR":-3.5626797e-5,"MEAN_MOTION_DOT":-1.414e-5,"MEAN_MOTION_DDOT":0},{"OBJECT_NAME":"CZ-2C DEB","OBJECT_ID":"2018-056F","EPOCH":"2026-03-09T10:57:26.102304","MEAN_MOTION":15.27739248,"ECCENTRICITY":0.00119172,"INCLINATION":98.1188,"RA_OF_ASC_NODE":250.032,"ARG_OF_PERICENTER":4.6998,"MEAN_ANOMALY":355.4349,"EPHEMERIS_TYPE":0,"CLASSIFICATION_TYPE":"U","NORAD_CAT_ID":43534,"ELEMENT_SET_NO":999,"REV_AT_EPOCH":41855,"BSTAR":0.00085537155,"MEAN_MOTION_DOT":0.00023193,"MEAN_MOTION_DDOT":0}]
